COSMOS 1933             
1 18958U 88020A   26003.12155002  .00007965  00000+0  39762-3 0  9992
2 18958  82.5152 315.7497 0006176  74.2247 285.9667 15.17337879 40286
SL-3 R/B                
1 19046U 88032B   26003.27288178  .00009582  00000+0  45606-3 0  9992
2 19046  97.5096 346.8493 0028455 101.2390 259.2045 15.19009210 42174
SL-16 R/B               
1 19120U 88039B   26003.02699292  .00000273  00000+0  15165-3 0  9993
2 19120  71.0133 207.3891 0019553  79.7087 280.6242 14.19601682949061
COSMOS 1953             
1 19210U 88050A   25363.34859606  .00008063  00000+0  30114-3 0  9992
2 19210  82.5080 228.9139 0012535  18.6006 341.5688 15.27141359 27045
SL-8 R/B                
1 19257U 88053B   26003.03262329  .00000486  00000+0  16608-3 0  9997
2 19257  74.0462 233.4772 0019013  69.5912  35.6236 14.38874870967156
COSMOS 1975             
1 19573U 88093A   26003.21433811  .00012101  00000+0  45662-3 0  9997
2 19573  82.5185 183.3249 0012533  44.7743 315.4505 15.26835658  9415
SL-14 R/B               
1 19574U 88093B   26003.32845216  .00001027  00000+0  11573-3 0  9995
2 19574  82.5319 103.4089 0019325 253.2716 164.2511 14.85579250991338
SL-16 R/B               
1 19650U 88102B   26003.21420920 -.00000160  00000+0 -56519-4 0  9999
2 19650  71.0003 289.2598 0011950 114.8647 245.3720 14.16142276917626
INTERCOSMOS 24          
1 20261U 89080A   26003.11428781  .00000880  00000+0  25025-3 0  9991
2 20261  82.6068 147.0579 1188897  84.9570 288.5849 12.59475634658549
SL-14 R/B               
1 20262U 89080C   26003.26558800  .00000541  00000+0  16191-3 0  9992
2 20262  82.5913 215.2000 1230156 334.3941  20.0805 12.50432047651978
DELTA 1 R/B             
1 20323U 89089B   26003.09224199  .00000739  00000+0  19174-3 0  9994
2 20323  97.0740 220.9449 0068401 331.0617  28.6795 14.50594379886229
ARIANE 40 R/B           
1 20443U 90005H   26003.14339727  .00000625  00000+0  21267-3 0  9997
2 20443  98.3211  65.7134 0010790  46.7679 313.4409 14.39817888883371
